ONEWEB-0628             
1 55169U 23004AF  25355.61993442  .00002868  00000+0  79458-2 0  9991
2 55169  87.8904  25.9193 0002611 106.1422 253.9994 13.12334045144746
ONEWEB-0629             
1 55170U 23004AG  25355.57472803  .00000084  00000+0  18245-3 0  9997
2 55170  87.9099  41.1917 0002116 100.9793 259.1576 13.17649693144197
ONEWEB-0631             
1 55171U 23004AH  25355.47424459  .00000028  00000+0  37953-4 0  9997
2 55171  87.9176  10.7253 0001297  98.3496 261.7783 13.18686366146255
ONEWEB-0709             
1 55172U 23004AJ  25355.73803589 -.00000497  00000+0 -14378-2 0  9998
2 55172  87.8848  56.4215 0001094  79.1621 280.9630 13.11414593142612
ONEWEB-0710             
1 55173U 23004AK  25355.66502073  .00000104  00000+0  23477-3 0  9999
2 55173  87.9101  41.1682 0001741 104.3888 255.7437 13.17648198144208
ONEWEB-0711             
1 55174U 23004AL  25355.70925843  .00000515  00000+0  14158-2 0  9990
2 55174  87.8855  56.4014 0002035 127.0213 233.1101 13.11417122142574
ONEWEB-0713             
1 55175U 23004AM  25355.72787457 -.00000195  00000+0 -58744-3 0  9996
2 55175  87.8849  56.4007 0001852 116.4763 243.6555 13.11415548142566
ONEWEB-0715             
1 55176U 23004AN  25355.72278853  .00000006  00000+0 -18051-4 0  9990
2 55176  87.8849  56.4018 0001057 103.0801 257.0445 13.11412803142604
